[{"OBJECT_NAME":"STARLINK-5732","OBJECT_ID":"2023-020D","EPOCH":"2026-03-09T04:58:15.357216","MEAN_MOTION":15.02530703,"ECCENTRICITY":9.817e-5,"INCLINATION":43.0025,"RA_OF_ASC_NODE":7.5285,"ARG_OF_PERICENTER":258.253,"MEAN_ANOMALY":101.8203,"EPHEMERIS_TYPE":0,"CLASSIFICATION_TYPE":"U","NORAD_CAT_ID":55572,"ELEMENT_SET_NO":999,"REV_AT_EPOCH":16884,"BSTAR":-7.1304503e-5,"MEAN_MOTION_DOT":-1.166e-5,"MEAN_MOTION_DDOT":0},{"OBJECT_NAME":"FENGYUN 1C DEB","OBJECT_ID":"1999-025ATE","EPOCH":"2026-03-09T09:33:08.339616","MEAN_MOTION":15.01474525,"ECCENTRICITY":0.00075584,"INCLINATION":98.7312,"RA_OF_ASC_NODE":229.2263,"ARG_OF_PERICENTER":329.2571,"MEAN_ANOMALY":91.5818,"EPHEMERIS_TYPE":0,"CLASSIFICATION_TYPE":"U","NORAD_CAT_ID":30744,"ELEMENT_SET_NO":999,"REV_AT_EPOCH":99383,"BSTAR":0.0056947952,"MEAN_MOTION_DOT":0.0007432,"MEAN_MOTION_DDOT":0}]
